     2.100          NAVIGATION                              RINEX VERSION / TYPE
fic2rin                                 09/25/2011 00:10:02 PGM / RUN BY / DATE
                                                            END OF HEADER
20 11  9 24 20  0  0.0  .534094870090D-04  .568434188608D-12  .000000000000D+00
     .760000000000D+02  .135312500000D+02  .576702593406D-08 -.227754461150D+00
     .707805156708D-06  .455799477641D-02  .348314642906D-05  .515358330345D+04
     .590400000000D+06 -.242143869400D-07 -.199535194770D+01 -.186264514923D-07
     .931940444843D+00  .294843750000D+03  .126507695592D+01 -.897108796754D-08
    -.992898501065D-10  .100000000000D+01  .165400000000D+04  .000000000000D+00
     .240000000000D+01  .000000000000D+00 -.745058059692D-08  .760000000000D+02
     .583206000000D+06  .400000000000D+01
21 11  9 24 20  0  0.0 -.173617154360D-03 -.250111042988D-11  .000000000000D+00
     .780000000000D+02  .433750000000D+02  .536879506044D-08  .452931826794D+00
     .257045030594D-05  .181060072500D-01  .106841325760D-04  .515371453094D+04
     .590400000000D+06 -.745058059692D-07 -.299446050602D+01  .167638063431D-06
     .932070666496D+00  .159375000000D+03 -.232897472836D+01 -.870607692876D-08
     .285011871888D-09  .100000000000D+01  .165400000000D+04  .000000000000D+00
     .240000000000D+01  .000000000000D+00 -.116415321827D-07  .780000000000D+02
     .583206000000D+06  .400000000000D+01
22 11  9 24 20  0  0.0  .144382938743D-03 -.227373675443D-12  .000000000000D+00
     .310000000000D+02  .884375000000D+01  .574202489267D-08 -.150344537196D+01
     .355765223503D-06  .592571066227D-02  .349059700966D-05  .515369522095D+04
     .590400000000D+06  .162050127983D-06 -.193756847418D+01  .115483999252D-06
     .929346195159D+00  .296750000000D+03 -.197083083377D+01 -.881572435316D-08
    -.156435087578D-09  .100000000000D+01  .165400000000D+04  .000000000000D+00
     .240000000000D+01  .000000000000D+00 -.167638063431D-07  .310000000000D+02
     .583206000000D+06  .400000000000D+01
23 11  9 24 20  0  0.0  .273323617876D-03 -.306954461848D-11  .000000000000D+00
     .740000000000D+02 -.418437500000D+02  .424339103998D-08  .297186380523D+01
    -.224821269512D-05  .758723297622D-02  .106282532215D-04  .515373317337D+04
     .590400000000D+06 -.800937414169D-07 -.895217039052D+00  .298023223877D-07
     .962921575332D+00  .176687500000D+03 -.305350242263D+01 -.785747015231D-08
    -.530736393015D-09  .100000000000D+01  .165400000000D+04  .000000000000D+00
     .240000000000D+01  .000000000000D+00 -.200234353542D-07  .740000000000D+02
     .583206000000D+06  .400000000000D+01
24 11  9 24 20  0  0.0  .426587648690D-03  .306954461848D-11  .000000000000D+00
     .540000000000D+02  .579687500000D+02  .486913139030D-08  .235824318115D+01
     .311620533466D-05  .669636868406D-02  .106990337372D-04  .515342416191D+04
     .590400000000D+06 -.115483999252D-06 -.294775999454D+01  .212341547012D-06
     .948633468037D+00  .166125000000D+03 -.181740873094D+00 -.818891252965D-08
     .413231498465D-09  .100000000000D+01  .165400000000D+04  .000000000000D+00
     .240000000000D+01  .000000000000D+00 -.139698386192D-08  .540000000000D+02
     .583206000000D+06  .400000000000D+01
25 11  9 24 20  0  0.0  .202604569495D-04  .181898940355D-11  .000000000000D+00
     .630000000000D+02  .131250000000D+01  .497842165696D-08 -.390132329023D+00
     .838190317154D-07  .103500147816D-02  .245869159698D-05  .515358691025D+04
     .590400000000D+06  .000000000000D+00  .117407172903D+01  .409781932831D-07
     .965210612028D+00  .338437500000D+03  .990498240902D+00 -.861393023334D-08
     .138934358602D-09  .100000000000D+01  .165400000000D+04  .000000000000D+00
     .240000000000D+01  .000000000000D+00  .558793544769D-08  .630000000000D+02
     .583206000000D+06  .400000000000D+01
27 11  9 24 20  0  0.0  .308560673147D-03  .375166564481D-11  .000000000000D+00
     .390000000000D+02  .117500000000D+03  .374087010797D-08 -.254336792128D+01
     .607967376709D-05  .216469547013D-01  .105462968349D-04  .515362696075D+04
     .590400000000D+06  .223517417908D-06  .964863332831D-01  .232830643654D-06
     .981831277831D+00  .177656250000D+03 -.120112780057D+01 -.746781106431D-08
     .496806408267D-09  .100000000000D+01  .165400000000D+04  .000000000000D+00
     .240000000000D+01  .630000000000D+02 -.419095158577D-08  .390000000000D+02
     .583206000000D+06  .400000000000D+01
28 11  9 24 20  0  0.0  .701565295458D-04  .306954461848D-11  .000000000000D+00
     .410000000000D+02 -.164687500000D+02  .464983654150D-08 -.144849319791D+01
    -.396743416786D-06  .172110672574D-01  .254623591900D-05  .515369801521D+04
     .590400000000D+06  .212341547012D-06  .123034503075D+01  .316649675369D-06
     .975633705849D+00  .333812500000D+03 -.187927899924D+01 -.836213403073D-08
     .803604901941D-10  .100000000000D+01  .165400000000D+04  .000000000000D+00
     .240000000000D+01  .000000000000D+00 -.102445483208D-07  .410000000000D+02
     .583206000000D+06  .400000000000D+01
29 11  9 24 20  0  0.0  .242663081735D-03  .341060513165D-11  .000000000000D+00
     .660000000000D+02 -.110531250000D+03  .453768901296D-08  .645273299800D+00
    -.562332570553D-05  .220248976257D-02  .104960054159D-04  .515373026276D+04
     .590400000000D+06 -.931322574615D-08  .227417133454D+01 -.409781932831D-07
     .962207105160D+00  .180218750000D+03 -.115990060837D+01 -.813569602725D-08
    -.257510726355D-09  .100000000000D+01  .165400000000D+04  .000000000000D+00
     .240000000000D+01  .000000000000D+00 -.931322574615D-08  .660000000000D+02
     .583206000000D+06  .400000000000D+01
30 11  9 24 20  0  0.0  .807787291706D-04 -.613908923697D-11  .000000000000D+00
     .790000000000D+02  .229687500000D+02  .511557022689D-08 -.138632161530D+01
     .152736902237D-05  .117401164025D-01  .246055424213D-05  .515542966843D+04
     .590400000000D+06 -.800937414169D-07  .108532008940D+01  .311061739922D-06
     .956538110349D+00  .332125000000D+03  .157822198778D+01 -.871107713704D-08
     .219294848796D-09  .100000000000D+01  .165400000000D+04  .000000000000D+00
     .240000000000D+01  .000000000000D+00 -.419095158577D-08  .790000000000D+02
     .583206000000D+06  .400000000000D+01
31 11  9 24 20  0  0.0  .146103091538D-03  .545696821064D-11  .000000000000D+00
     .620000000000D+02  .778437500000D+02  .385658921385D-08  .135398881434D+01
     .415742397308D-05  .768118561246D-02  .103898346424D-04  .515374176979D+04
     .590400000000D+06  .163912773132D-06  .152034295353D+00 -.121071934700D-06
     .980550656899D+00  .185937500000D+03 -.953797756111D+00 -.777710966212D-08
     .428946438769D-09  .100000000000D+01  .165400000000D+04  .000000000000D+00
     .240000000000D+01  .000000000000D+00 -.130385160446D-07  .620000000000D+02
     .583206000000D+06  .400000000000D+01
32 11  9 24 20  0  0.0 -.334384851158D-03 -.648014975013D-11  .000000000000D+00
     .830000000000D+02 -.103125000000D+01  .514807158070D-08  .208523606147D+01
     .186264514923D-08  .121946131112D-01  .365823507309D-05  .515356169128D+04
     .590400000000D+06  .171363353729D-06 -.186797947851D+01  .745058059692D-07
     .953519114104D+00  .301656250000D+03 -.729253570670D+00 -.845535219936D-08
    -.326085011321D-09  .100000000000D+01  .165400000000D+04  .000000000000D+00
     .340000000000D+01  .000000000000D+00 -.279396772385D-08  .830000000000D+02
     .583206000000D+06  .400000000000D+01
 3 11  9 24 19 59 44.0  .772612635046D-03  .500222085975D-11  .000000000000D+00
     .900000000000D+01 -.116562500000D+03  .527093384127D-08  .301941340753D+01
    -.615976750851D-05  .148330753436D-01  .827014446259D-05  .515368158531D+04
     .590384000000D+06  .875443220139D-07  .210431403905D+01 -.240281224251D-06
     .929405390676D+00  .202750000000D+03  .113731310495D+01 -.828141638280D-08
    -.311441544219D-09  .100000000000D+01  .165400000000D+04  .000000000000D+00
     .240000000000D+01  .000000000000D+00 -.465661287308D-08  .900000000000D+01
     .583656000000D+06  .400000000000D+01
15 11  9 24 19 59 44.0 -.105007085949D-03  .147792889038D-11  .000000000000D+00
     .100000000000D+01 -.438750000000D+02  .466376569313D-08 -.275186716208D+01
    -.224635004997D-05  .367632554844D-02  .112112611532D-04  .515368695450D+04
     .590384000000D+06  .186264514923D-08 -.927321790103D+00 -.223517417908D-07
     .948317365088D+00  .156968750000D+03 -.771374891089D-01 -.813569602725D-08
    -.548951437459D-09  .100000000000D+01  .165400000000D+04  .000000000000D+00
     .240000000000D+01  .000000000000D+00 -.102445483208D-07  .100000000000D+01
     .583956000000D+06  .400000000000D+01
32 11  9 24 19 59 44.0 -.334382988513D-03 -.648014975013D-11  .000000000000D+00
     .840000000000D+02 -.103125000000D+01  .514807158070D-08  .208290251988D+01
     .186264514923D-08  .121946145082D-01  .365823507309D-05  .515356168556D+04
     .590384000000D+06  .171363353729D-06 -.186797934246D+01  .745058059692D-07
     .953519119956D+00  .301656250000D+03 -.729253940788D+00 -.845535219936D-08
    -.326085011321D-09  .100000000000D+01  .165400000000D+04  .000000000000D+00
     .240000000000D+01  .000000000000D+00 -.279396772385D-08  .840000000000D+02
     .585216000000D+06  .400000000000D+01
24 11  9 24 19 59 44.0  .426589045674D-03  .306954461848D-11  .000000000000D+00
     .180000000000D+02  .579687500000D+02  .486913139030D-08  .235590992922D+01
     .311620533466D-05  .669636344537D-02  .106990337372D-04  .515342416000D+04
     .590384000000D+06 -.115483999252D-06 -.294775983362D+01  .212341547012D-06
     .948633468037D+00  .166125000000D+03 -.181741682088D+00 -.818891252965D-08
     .413231498465D-09  .100000000000D+01  .165400000000D+04  .000000000000D+00
     .240000000000D+01  .000000000000D+00 -.139698386192D-08  .180000000000D+02
     .586656000000D+06  .400000000000D+01
